{"fetched_at":"2026-03-29T16:36:15Z","count":15609,"tles":[{"name":"STARLINK-30499","line1":"1 57918U 23147F   26087.66342076  .00000057  00000+0  11599-4 0  9994","line2":"2 57918  43.0043  73.0640 0000741 278.0257  82.0511 15.27578822141234","category":"Starlink"}]}