{
  "norad_id": 57918,
  "name": "STARLINK-30499",
  "history": [
    {
      "epoch": "2026-03-28T15:55:19.553664",
      "apogee_km": 483.56124338448626,
      "perigee_km": 482.5440034109206,
      "latitude_deg": -4.398608038823815,
      "longitude_deg": 35.48839296004735,
      "semi_major_axis_km": 6861.189623397703,
      "eccentricity": 7.413e-05,
      "inclination_deg": 43.0043,
      "raan_deg": 73.064,
      "arg_perigee_deg": 278.0257,
      "mean_anomaly_deg": 82.0511,
      "mean_motion_rev_day": 15.27578822
    }
  ]
}